[{"OBJECT_NAME":"STARLINK-32154","OBJECT_ID":"2024-131X","EPOCH":"2026-03-09T22:57:34.881408","MEAN_MOTION":15.30189323,"ECCENTRICITY":0.0001341,"INCLINATION":53.1609,"RA_OF_ASC_NODE":50.8892,"ARG_OF_PERICENTER":79.5348,"MEAN_ANOMALY":280.5804,"EPHEMERIS_TYPE":0,"CLASSIFICATION_TYPE":"U","NORAD_CAT_ID":60276,"ELEMENT_SET_NO":999,"REV_AT_EPOCH":9176,"BSTAR":6.3718041e-5,"MEAN_MOTION_DOT":1.528e-5,"MEAN_MOTION_DDOT":0},{"OBJECT_NAME":"OBJECT H","OBJECT_ID":"2025-055H","EPOCH":"2026-03-09T23:29:50.051328","MEAN_MOTION":15.30330066,"ECCENTRICITY":0.00075967,"INCLINATION":97.636,"RA_OF_ASC_NODE":211.9572,"ARG_OF_PERICENTER":140.4354,"MEAN_ANOMALY":219.7441,"EPHEMERIS_TYPE":0,"CLASSIFICATION_TYPE":"U","NORAD_CAT_ID":63298,"ELEMENT_SET_NO":999,"REV_AT_EPOCH":5423,"BSTAR":0.0015582864,"MEAN_MOTION_DOT":0.00045901,"MEAN_MOTION_DDOT":0}]
